{"type": "FeatureCollection", "features": [ {"type": "Feature", "properties": {"norad_id": 43108, "name": "BEIDOU-3 M8 (C28)", "group": "beidou", "lat": 4.967870672927387, "lon": 125.08926173155253, "alt_km": 21530.39691266115, "timestamp": "2025-12-16T10:53:45.734566+00:00", "meta": {"OBJECT_NAME": "BEIDOU-3 M8 (C28)", "OBJECT_ID": "2018-003B", "EPOCH": "2025-12-15T15:46:56.352288", "MEAN_MOTION": 1.86230781, "ECCENTRICITY": 0.00047156, "INCLINATION": 54.4868, "RA_OF_ASC_NODE": 308.6954, "ARG_OF_PERICENTER": 275.6738, "MEAN_ANOMALY": 84.2592, "EPHEMERIS_TYPE": 0, "CLASSIFICATION_TYPE": "U", "NORAD_CAT_ID": 43108, "ELEMENT_SET_NO": 999, "REV_AT_EPOCH": 5394, "BSTAR": 0, "MEAN_MOTION_DOT": -9.9e-07, "MEAN_MOTION_DDOT": 0}, "tle": {"line1": "1 43108U 18003B   25349.65759667 -.00000099  00000+0  00000+0 0  9999", "line2": "2 43108  54.4868 308.6954 0004715 275.6738  84.2592  1.86230781 53940"}}, "geometry": {"type": "Point", "coordinates": [125.08926173155253, 4.967870672927387]}}, {"type": "Feature", "properties": {"norad_id": 43207, "name": "BEIDOU-3 M4 (C22)", "group": "beidou", "lat": -44.79044343137277, "lon": -69.7566129074497, "alt_km": 21540.681380053826, "timestamp": "2025-12-16T10:53:45.734579+00:00", "meta": {"OBJECT_NAME": "BEIDOU-3 M4 (C22)", "OBJECT_ID": "2018-018A", "EPOCH": "2025-12-13T09:57:17.275392", "MEAN_MOTION": 1.86231174, "ECCENTRICITY": 0.00041262, "INCLINATION": 56.4868, "RA_OF_ASC_NODE": 69.2813, "ARG_OF_PERICENTER": 7.8207, "MEAN_ANOMALY": 352.2039, "EPHEMERIS_TYPE": 0, "CLASSIFICATION_TYPE": "U", "NORAD_CAT_ID": 43207, "ELEMENT_SET_NO": 999, "REV_AT_EPOCH": 5328, "BSTAR": 0, "MEAN_MOTION_DOT": -7.8e-07, "MEAN_MOTION_DDOT": 0}, "tle": {"line1": "1 43207U 18018A   25347.41478328 -.00000078  00000+0  00000+0 0  9996", "line2": "2 43207  56.4868  69.2813 0004126   7.8207 352.2039  1.86231174 53286"}}, "geometry": {"type": "Point", "coordinates": [-69.7566129074497, -44.79044343137277]}}, {"type": "Feature", "properties": {"norad_id": 43208, "name": "BEIDOU-3 M3 (C21)", "group": "beidou", "lat": -10.793186489465578, "lon": -103.55990267591727, "alt_km": 21539.99088002205, "timestamp": "2025-12-16T10:53:45.734590+00:00", "meta": {"OBJECT_NAME": "BEIDOU-3 M3 (C21)", "OBJECT_ID": "2018-018B", "EPOCH": "2025-12-10T19:07:00.567840", "MEAN_MOTION": 1.8623124, "ECCENTRICITY": 0.0006564, "INCLINATION": 56.484, "RA_OF_ASC_NODE": 69.3721, "ARG_OF_PERICENTER": 317.0111, "MEAN_ANOMALY": 42.9593, "EPHEMERIS_TYPE": 0, "CLASSIFICATION_TYPE": "U", "NORAD_CAT_ID": 43208, "ELEMENT_SET_NO": 999, "REV_AT_EPOCH": 5323, "BSTAR": 0, "MEAN_MOTION_DOT": -5.7e-07, "MEAN_MOTION_DDOT": 0}, "tle": {"line1": "1 43208U 18018B   25344.79653435 -.00000057  00000+0  00000+0 0  9996", "line2": "2 43208  56.4840  69.3721 0006564 317.0111  42.9593  1.86231240 53231"}}, "geometry": {"type": "Point", "coordinates": [-103.55990267591727, -10.793186489465578]}}, {"type": "Feature", "properties": {"norad_id": 43245, "name": "BEIDOU-3 M9 (C29)", "group": "beidou", "lat": 37.21435590795045, "lon": -20.70065535832279, "alt_km": 21526.207403372613, "timestamp": "2025-12-16T10:53:45.734602+00:00", "meta": {"OBJECT_NAME": "BEIDOU-3 M9 (C29)", "OBJECT_ID": "2018-029A", "EPOCH": "2025-12-15T07:24:03.092832", "MEAN_MOTION": 1.86228295, "ECCENTRICITY": 0.00015379, "INCLINATION": 54.363, "RA_OF_ASC_NODE": 306.3776, "ARG_OF_PERICENTER": 283.4598, "MEAN_ANOMALY": 76.5102, "EPHEMERIS_TYPE": 0, "CLASSIFICATION_TYPE": "U", "NORAD_CAT_ID": 43245, "ELEMENT_SET_NO": 999, "REV_AT_EPOCH": 5247, "BSTAR": 0, "MEAN_MOTION_DOT": -9.9e-07, "MEAN_MOTION_DDOT": 0}, "tle": {"line1": "1 43245U 18029A   25349.30836913 -.00000099  00000+0  00000+0 0  9991", "line2": "2 43245  54.3630 306.3776 0001537 283.4598  76.5102  1.86228295 52470"}}, "geometry": {"type": "Point", "coordinates": [-20.70065535832279, 37.21435590795045]}}, {"type": "Feature", "properties": {"norad_id": 43246, "name": "BEIDOU-3 M10 (C30)", "group": "beidou", "lat": 54.33239567364276, "lon": 39.037212032913764, "alt_km": 21522.014215679214, "timestamp": "2025-12-16T10:53:45.734613+00:00", "meta": {"OBJECT_NAME": "BEIDOU-3 M10 (C30)", "OBJECT_ID": "2018-029B", "EPOCH": "2025-12-15T05:50:48.210720", "MEAN_MOTION": 1.86228929, "ECCENTRICITY": 0.00041103, "INCLINATION": 54.3606, "RA_OF_ASC_NODE": 306.4069, "ARG_OF_PERICENTER": 1.1805, "MEAN_ANOMALY": 358.8077, "EPHEMERIS_TYPE": 0, "CLASSIFICATION_TYPE": "U", "NORAD_CAT_ID": 43246, "ELEMENT_SET_NO": 999, "REV_AT_EPOCH": 5245, "BSTAR": 0, "MEAN_MOTION_DOT": -9.9e-07, "MEAN_MOTION_DDOT": 0}, "tle": {"line1": "1 43246U 18029B   25349.24361355 -.00000099  00000+0  00000+0 0  9998", "line2": "2 43246  54.3606 306.4069 0004110   1.1805 358.8077  1.86228929 52455"}}, "geometry": {"type": "Point", "coordinates": [39.037212032913764, 54.33239567364276]}}, {"type": "Feature", "properties": {"norad_id": 43539, "name": "BEIDOU-2 IGSO-7 (C16)", "group": "beidou", "lat": -11.569147753494683, "lon": -7.165536188948173, "alt_km": 35497.083690387815, "timestamp": "2025-12-16T10:53:45.734625+00:00", "meta": {"OBJECT_NAME": "BEIDOU-2 IGSO-7 (C16)", "OBJECT_ID": "2018-057A", "EPOCH": "2025-12-15T07:47:07.120608", "MEAN_MOTION": 1.00256546, "ECCENTRICITY": 0.00926218, "INCLINATION": 55.1766, "RA_OF_ASC_NODE": 164.6485, "ARG_OF_PERICENTER": 235.2644, "MEAN_ANOMALY": 271.8458, "EPHEMERIS_TYPE": 0, "CLASSIFICATION_TYPE": "U", "NORAD_CAT_ID": 43539, "ELEMENT_SET_NO": 999, "REV_AT_EPOCH": 2728, "BSTAR": 0, "MEAN_MOTION_DOT": -2.3e-07, "MEAN_MOTION_DDOT": 0}, "tle": {"line1": "1 43539U 18057A   25349.32438797 -.00000023  00000+0  00000+0 0  9995", "line2": "2 43539  55.1766 164.6485 0092621 235.2644 271.8458  1.00256546 27289"}}, "geometry": {"type": "Point", "coordinates": [-7.165536188948173, -11.569147753494683]}}, {"type": "Feature", "properties": {"norad_id": 43581, "name": "BEIDOU-3 M5 (C23)", "group": "beidou", "lat": -44.03358685464484, "lon": 144.02971658466154, "alt_km": 21529.86480065442, "timestamp": "2025-12-16T10:53:45.734659+00:00", "meta": {"OBJECT_NAME": "BEIDOU-3 M5 (C23)", "OBJECT_ID": "2018-062A", "EPOCH": "2025-12-12T05:55:01.607232", "MEAN_MOTION": 1.86228672, "ECCENTRICITY": 0.00021016, "INCLINATION": 54.0891, "RA_OF_ASC_NODE": 188.6597, "ARG_OF_PERICENTER": 354.1416, "MEAN_ANOMALY": 5.9159, "EPHEMERIS_TYPE": 0, "CLASSIFICATION_TYPE": "U", "NORAD_CAT_ID": 43581, "ELEMENT_SET_NO": 999, "REV_AT_EPOCH": 5015, "BSTAR": 0, "MEAN_MOTION_DOT": 7.9e-07, "MEAN_MOTION_DDOT": 0}, "tle": {"line1": "1 43581U 18062A   25346.24654638  .00000079  00000+0  00000+0 0  9990", "line2": "2 43581  54.0891 188.6597 0002101 354.1416   5.9159  1.86228672 50154"}}, "geometry": {"type": "Point", "coordinates": [144.02971658466154, -44.03358685464484]}}, {"type": "Feature", "properties": {"norad_id": 43582, "name": "BEIDOU-3 M6 (C24)", "group": "beidou", "lat": 25.95917033864087, "lon": -150.82201272341845, "alt_km": 21503.81496232731, "timestamp": "2025-12-16T10:53:45.734672+00:00", "meta": {"OBJECT_NAME": "BEIDOU-3 M6 (C24)", "OBJECT_ID": "2018-062B", "EPOCH": "2025-12-15T20:50:21.636672", "MEAN_MOTION": 1.86229812, "ECCENTRICITY": 0.00078211, "INCLINATION": 54.0887, "RA_OF_ASC_NODE": 188.5256, "ARG_OF_PERICENTER": 46.8936, "MEAN_ANOMALY": 313.2408, "EPHEMERIS_TYPE": 0, "CLASSIFICATION_TYPE": "U", "NORAD_CAT_ID": 43582, "ELEMENT_SET_NO": 999, "REV_AT_EPOCH": 5022, "BSTAR": 0, "MEAN_MOTION_DOT": 1.14e-06, "MEAN_MOTION_DDOT": 0}, "tle": {"line1": "1 43582U 18062B   25349.86830598  .00000114  00000+0  00000+0 0  9993", "line2": "2 43582  54.0887 188.5256 0007821  46.8936 313.2408  1.86229812 50224"}}, "geometry": {"type": "Point", "coordinates": [-150.82201272341845, 25.95917033864087]}}, {"type": "Feature", "properties": {"norad_id": 43602, "name": "BEIDOU-3 M12 (C26)", "group": "beidou", "lat": 51.35709940830319, "lon": -108.12911697997092, "alt_km": 21500.9188725154, "timestamp": "2025-12-16T10:53:45.734684+00:00", "meta": {"OBJECT_NAME": "BEIDOU-3 M12 (C26)", "OBJECT_ID": "2018-067A", "EPOCH": "2025-12-15T19:20:53.056032", "MEAN_MOTION": 1.86227726, "ECCENTRICITY": 0.00091938, "INCLINATION": 54.1832, "RA_OF_ASC_NODE": 187.259, "ARG_OF_PERICENTER": 40.8045, "MEAN_ANOMALY": 319.3313, "EPHEMERIS_TYPE": 0, "CLASSIFICATION_TYPE": "U", "NORAD_CAT_ID": 43602, "ELEMENT_SET_NO": 999, "REV_AT_EPOCH": 4970, "BSTAR": 0, "MEAN_MOTION_DOT": 1.15e-06, "MEAN_MOTION_DDOT": 0}, "tle": {"line1": "1 43602U 18067A   25349.80616963  .00000115  00000+0  00000+0 0  9994", "line2": "2 43602  54.1832 187.2590 0009193  40.8045 319.3313  1.86227726 49709"}}, "geometry": {"type": "Point", "coordinates": [-108.12911697997092, 51.35709940830319]}}, {"type": "Feature", "properties": {"norad_id": 43603, "name": "BEIDOU-3 M11 (C25)", "group": "beidou", "lat": -12.801963302796242, "lon": 177.75829794587048, "alt_km": 21520.809923318542, "timestamp": "2025-12-16T10:53:45.734695+00:00", "meta": {"OBJECT_NAME": "BEIDOU-3 M11 (C25)", "OBJECT_ID": "2018-067B", "EPOCH": "2025-12-15T09:41:21.883200", "MEAN_MOTION": 1.86227246, "ECCENTRICITY": 0.00055714, "INCLINATION": 54.1803, "RA_OF_ASC_NODE": 187.2367, "ARG_OF_PERICENTER": 36.5253, "MEAN_ANOMALY": 323.5792, "EPHEMERIS_TYPE": 0, "CLASSIFICATION_TYPE": "U", "NORAD_CAT_ID": 43603, "ELEMENT_SET_NO": 999, "REV_AT_EPOCH": 4972, "BSTAR": 0, "MEAN_MOTION_DOT": 1.14e-06, "MEAN_MOTION_DDOT": 0}, "tle": {"line1": "1 43603U 18067B   25349.40372550  .00000114  00000+0  00000+0 0  9991", "line2": "2 43603  54.1803 187.2367 0005571  36.5253 323.5792  1.86227246 49726"}}, "geometry": {"type": "Point", "coordinates": [177.75829794587048, -12.801963302796242]}}]}